{"type": "FeatureCollection", "features": [{"type": "Feature", "properties": {"norad_id": 25590, "name": "COSMOS 2361", "group": "musson", "lat": 71.3899548879226, "lon": 5.795178930455794, "alt_km": 1002.7162729178071, "timestamp": "2025-12-12T14:39:18.209026+00:00", "meta": {"OBJECT_NAME": "COSMOS 2361", "OBJECT_ID": "1998-076A", "EPOCH": "2025-12-12T02:22:20.301312", "MEAN_MOTION": 13.7321741, "ECCENTRICITY": 0.0030052, "INCLINATION": 82.9339, "RA_OF_ASC_NODE": 344.5604, "ARG_OF_PERICENTER": 267.4467, "MEAN_ANOMALY": 156.6361, "EPHEMERIS_TYPE": 0, "CLASSIFICATION_TYPE": "U", "NORAD_CAT_ID": 25590, "ELEMENT_SET_NO": 999, "REV_AT_EPOCH": 35102, "BSTAR": 9.0830817e-05, "MEAN_MOTION_DOT": 9.9e-07, "MEAN_MOTION_DDOT": 0}, "tle": {"line1": "1 25590U 98076A   25346.09884608  .00000099  00000+0  90831-4 0  9996", "line2": "2 25590  82.9339 344.5604 0030052 267.4467 156.6361 13.73217410351027"}}, "geometry": {"type": "Point", "coordinates": [5.795178930455794, 71.3899548879226]}}, {"type": "Feature", "properties": {"norad_id": 26818, "name": "COSMOS 2378", "group": "musson", "lat": 35.031944457260465, "lon": 174.8277576479132, "alt_km": 970.6384197032967, "timestamp": "2025-12-12T14:39:18.209042+00:00", "meta": {"OBJECT_NAME": "COSMOS 2378", "OBJECT_ID": "2001-023A", "EPOCH": "2025-12-12T07:00:54.470304", "MEAN_MOTION": 13.74141931, "ECCENTRICITY": 0.00323733, "INCLINATION": 82.9272, "RA_OF_ASC_NODE": 0.0567, "ARG_OF_PERICENTER": 206.1731, "MEAN_ANOMALY": 164.8551, "EPHEMERIS_TYPE": 0, "CLASSIFICATION_TYPE": "U", "NORAD_CAT_ID": 26818, "ELEMENT_SET_NO": 999, "REV_AT_EPOCH": 22917, "BSTAR": 6.3144806e-05, "MEAN_MOTION_DOT": 7.5e-07, "MEAN_MOTION_DDOT": 0}, "tle": {"line1": "1 26818U 01023A   25346.29229711  .00000075  00000+0  63145-4 0  9998", "line2": "2 26818  82.9272   0.0567 0032373 206.1731 164.8551 13.74141931229178"}}, "geometry": {"type": "Point", "coordinates": [174.8277576479132, 35.031944457260465]}}, {"type": "Feature", "properties": {"norad_id": 27436, "name": "COSMOS 2389", "group": "musson", "lat": -9.216872366402352, "lon": -54.07026935630572, "alt_km": 973.1431839535935, "timestamp": "2025-12-12T14:39:18.209053+00:00", "meta": {"OBJECT_NAME": "COSMOS 2389", "OBJECT_ID": "2002-026A", "EPOCH": "2025-12-12T06:30:39.460320", "MEAN_MOTION": 13.75154542, "ECCENTRICITY": 0.0047629, "INCLINATION": 82.9502, "RA_OF_ASC_NODE": 307.3314, "ARG_OF_PERICENTER": 62.0122, "MEAN_ANOMALY": 50.3674, "EPHEMERIS_TYPE": 0, "CLASSIFICATION_TYPE": "U", "NORAD_CAT_ID": 27436, "ELEMENT_SET_NO": 999, "REV_AT_EPOCH": 18142, "BSTAR": 9.0936707e-05, "MEAN_MOTION_DOT": 1.03e-06, "MEAN_MOTION_DDOT": 0}, "tle": {"line1": "1 27436U 02026A   25346.27129005  .00000103  00000+0  90937-4 0  9993", "line2": "2 27436  82.9502 307.3314 0047629  62.0122  50.3674 13.75154542181420"}}, "geometry": {"type": "Point", "coordinates": [-54.07026935630572, -9.216872366402352]}}, {"type": "Feature", "properties": {"norad_id": 27818, "name": "COSMOS 2398", "group": "musson", "lat": -54.2470377661532, "lon": -97.10559479684102, "alt_km": 1021.3881553651954, "timestamp": "2025-12-12T14:39:18.209063+00:00", "meta": {"OBJECT_NAME": "COSMOS 2398", "OBJECT_ID": "2003-023A", "EPOCH": "2025-12-12T06:42:48.232224", "MEAN_MOTION": 13.72385706, "ECCENTRICITY": 0.00325522, "INCLINATION": 82.9485, "RA_OF_ASC_NODE": 273.0372, "ARG_OF_PERICENTER": 113.0393, "MEAN_ANOMALY": 358.3244, "EPHEMERIS_TYPE": 0, "CLASSIFICATION_TYPE": "U", "NORAD_CAT_ID": 27818, "ELEMENT_SET_NO": 999, "REV_AT_EPOCH": 12810, "BSTAR": 8.7398732e-05, "MEAN_MOTION_DOT": 9.6e-07, "MEAN_MOTION_DDOT": 0}, "tle": {"line1": "1 27818U 03023A   25346.27972491  .00000096  00000+0  87399-4 0  9999", "line2": "2 27818  82.9485 273.0372 0032552 113.0393 358.3244 13.72385706128108"}}, "geometry": {"type": "Point", "coordinates": [-97.10559479684102, -54.2470377661532]}}, {"type": "Feature", "properties": {"norad_id": 28380, "name": "COSMOS 2407", "group": "musson", "lat": 39.88820220024163, "lon": 27.060996008622595, "alt_km": 970.9032579600298, "timestamp": "2025-12-12T14:39:18.209073+00:00", "meta": {"OBJECT_NAME": "COSMOS 2407", "OBJECT_ID": "2004-028A", "EPOCH": "2025-12-12T04:04:25.862592", "MEAN_MOTION": 13.76313531, "ECCENTRICITY": 0.00403562, "INCLINATION": 82.9607, "RA_OF_ASC_NODE": 213.3147, "ARG_OF_PERICENTER": 56.3948, "MEAN_ANOMALY": 59.5835, "EPHEMERIS_TYPE": 0, "CLASSIFICATION_TYPE": "U", "NORAD_CAT_ID": 28380, "ELEMENT_SET_NO": 999, "REV_AT_EPOCH": 7415, "BSTAR": 6.183349e-05, "MEAN_MOTION_DOT": 7.6e-07, "MEAN_MOTION_DDOT": 0}, "tle": {"line1": "1 28380U 04028A   25346.16974378  .00000076  00000+0  61833-4 0  9997", "line2": "2 28380  82.9607 213.3147 0040356  56.3948  59.5835 13.76313531 74154"}}, "geometry": {"type": "Point", "coordinates": [27.060996008622595, 39.88820220024163]}}, {"type": "Feature", "properties": {"norad_id": 28521, "name": "COSMOS 2414", "group": "musson", "lat": 36.40674530177268, "lon": -170.00584601675186, "alt_km": 940.1147750846603, "timestamp": "2025-12-12T14:39:18.209083+00:00", "meta": {"OBJECT_NAME": "COSMOS 2414", "OBJECT_ID": "2005-002A", "EPOCH": "2025-12-12T00:38:10.154688", "MEAN_MOTION": 13.87902742, "ECCENTRICITY": 0.00408543, "INCLINATION": 82.9492, "RA_OF_ASC_NODE": 185.1994, "ARG_OF_PERICENTER": 141.6769, "MEAN_ANOMALY": 218.731, "EPHEMERIS_TYPE": 0, "CLASSIFICATION_TYPE": "U", "NORAD_CAT_ID": 28521, "ELEMENT_SET_NO": 999, "REV_AT_EPOCH": 5785, "BSTAR": 7.0527272e-05, "MEAN_MOTION_DOT": 1e-06, "MEAN_MOTION_DDOT": 0}, "tle": {"line1": "1 28521U 05002A   25346.02650642  .00000100  00000+0  70527-4 0  9995", "line2": "2 28521  82.9492 185.1994 0040854 141.6769 218.7310 13.87902742 57856"}}, "geometry": {"type": "Point", "coordinates": [-170.00584601675186, 36.40674530177268]}}, {"type": "Feature", "properties": {"norad_id": 32052, "name": "COSMOS 2429", "group": "musson", "lat": 2.373189184708482, "lon": 163.11143785813167, "alt_km": 1005.5835248423482, "timestamp": "2025-12-12T14:39:18.209093+00:00", "meta": {"OBJECT_NAME": "COSMOS 2429", "OBJECT_ID": "2007-038A", "EPOCH": "2025-12-12T06:48:44.805024", "MEAN_MOTION": 13.75149273, "ECCENTRICITY": 0.00392578, "INCLINATION": 82.9804, "RA_OF_ASC_NODE": 343.6448, "ARG_OF_PERICENTER": 39.1153, "MEAN_ANOMALY": 321.2829, "EPHEMERIS_TYPE": 0, "CLASSIFICATION_TYPE": "U", "NORAD_CAT_ID": 32052, "ELEMENT_SET_NO": 999, "REV_AT_EPOCH": 91596, "BSTAR": 7.9448057e-05, "MEAN_MOTION_DOT": 9.2e-07, "MEAN_MOTION_DDOT": 0}, "tle": {"line1": "1 32052U 07038A   25346.28385191  .00000092  00000+0  79448-4 0  9993", "line2": "2 32052  82.9804 343.6448 0039257  39.1153 321.2829 13.75149273915964"}}, "geometry": {"type": "Point", "coordinates": [163.11143785813167, 2.373189184708482]}}, {"type": "Feature", "properties": {"norad_id": 35635, "name": "COSMOS 2454", "group": "musson", "lat": 82.16927489828035, "lon": -127.21840133576987, "alt_km": 906.8466818918569, "timestamp": "2025-12-12T14:39:18.209103+00:00", "meta": {"OBJECT_NAME": "COSMOS 2454", "OBJECT_ID": "2009-039A", "EPOCH": "2025-12-12T06:25:54.246144", "MEAN_MOTION": 13.89928533, "ECCENTRICITY": 0.00204523, "INCLINATION": 82.9554, "RA_OF_ASC_NODE": 169.0026, "ARG_OF_PERICENTER": 74.9969, "MEAN_ANOMALY": 98.0449, "EPHEMERIS_TYPE": 0, "CLASSIFICATION_TYPE": "U", "NORAD_CAT_ID": 35635, "ELEMENT_SET_NO": 999, "REV_AT_EPOCH": 83143, "BSTAR": 8.1347714e-05, "MEAN_MOTION_DOT": 1.16e-06, "MEAN_MOTION_DDOT": 0}, "tle": {"line1": "1 35635U 09039A   25346.26798896  .00000116  00000+0  81348-4 0  9993", "line2": "2 35635  82.9554 169.0026 0020452  74.9969  98.0449 13.89928533831432"}}, "geometry": {"type": "Point", "coordinates": [-127.21840133576987, 82.16927489828035]}}, {"type": "Feature", "properties": {"norad_id": 36519, "name": "COSMOS 2463", "group": "musson", "lat": 44.41438269217689, "lon": -160.14463141468272, "alt_km": 1012.7833547930122, "timestamp": "2025-12-12T14:39:18.209112+00:00", "meta": {"OBJECT_NAME": "COSMOS 2463", "OBJECT_ID": "2010-017A", "EPOCH": "2025-12-12T05:34:05.281248", "MEAN_MOTION": 13.7164914, "ECCENTRICITY": 0.00348071, "INCLINATION": 82.9614, "RA_OF_ASC_NODE": 27.0858, "ARG_OF_PERICENTER": 289.5238, "MEAN_ANOMALY": 137.1765, "EPHEMERIS_TYPE": 0, "CLASSIFICATION_TYPE": "U", "NORAD_CAT_ID": 36519, "ELEMENT_SET_NO": 999, "REV_AT_EPOCH": 78230, "BSTAR": 5.6221987e-05, "MEAN_MOTION_DOT": 6.6e-07, "MEAN_MOTION_DDOT": 0}, "tle": {"line1": "1 36519U 10017A   25346.23200557  .00000066  00000+0  56222-4 0  9999", "line2": "2 36519  82.9614  27.0858 0034807 289.5238 137.1765 13.71649140782301"}}, "geometry": {"type": "Point", "coordinates": [-160.14463141468272, 44.41438269217689]}}]}